QIANFAN-60              
1 62790U 25016F   26024.14452596  .00000189  00000+0  27457-3 0  9993
2 62790  88.9737  98.6916 0015142 214.0196 145.9986 13.50987100 52950
QIANFAN-61              
1 62791U 25016G   26024.17748858  .00000174  00000+0  25093-3 0  9994
2 62791  88.9804  98.8800 0014088 212.8093 147.2185 13.50988438 52973
QIANFAN-62              
1 62792U 25016H   26024.10754490  .00000183  00000+0  26445-3 0  9999
2 62792  88.9751  98.7327 0015452 214.0239 145.9923 13.50991091 52952
QIANFAN-63              
1 62793U 25016J   26024.13221640  .00000180  00000+0  25950-3 0  9996
2 62793  88.9757  98.6845 0015342 219.5591 140.4442 13.50989290 52990
QIANFAN-64              
1 62794U 25016K   26024.17336200  .00000180  00000+0  26046-3 0  9997
2 62794  88.9744  98.6486 0013516 211.0604 148.9749 13.50987825 52996
QIANFAN-65              
1 62795U 25016L   26024.16930534  .00000205  00000+0  29914-3 0  9992
2 62795  88.9741  98.6736 0013310 212.7656 147.2671 13.50986600 52973
QIANFAN-66              
1 62796U 25016M   26024.12398517  .00000201  00000+0  29245-3 0  9991
2 62796  88.9760  98.6567 0014563 208.9303 151.1042 13.50991353 53017
QIANFAN-67              
1 62797U 25016N   26024.12809960  .00000187  00000+0  27073-3 0  9991
2 62797  88.9750  98.6777 0014299 216.0436 143.9752 13.50995592 52984
QIANFAN-68              
1 62798U 25016P   26024.11988786  .00000203  00000+0  29538-3 0  9992
2 62798  88.9754  98.7253 0014411 214.2495 145.7728 13.50987539 52963
QIANFAN-69              
1 62799U 25016Q   26024.13633589  .00000180  00000+0  26062-3 0  9996
2 62799  88.9733  98.5839 0015107 215.7249 144.2893 13.50987837 53009
QIANFAN-70              
1 62800U 25016R   26024.15284535  .00000171  00000+0  24574-3 0  9990
2 62800  88.9753  98.7296 0015039 205.5849 154.4559 13.50991594 52961
QIANFAN-71              
1 62801U 25016S   26024.14865248  .00000178  00000+0  25651-3 0  9990
2 62801  88.9747  98.7070 0014912 219.3328 140.6741 13.50990936 52968
QIANFAN-72              
1 62802U 25016T   26024.16510078  .00000179  00000+0  25920-3 0  9991
2 62802  88.9738  98.7145 0017937 228.0487 131.9136 13.50990940 52950
QIANFAN-73              
1 63159U 25046A   26024.11815867  .00000299  00000+0  44354-3 0  9994
2 63159  88.9796 315.6441 0015772   8.3046 351.8363 13.50993585 53139
QIANFAN-74              
1 63160U 25046B   26024.10165214  .00000311  00000+0  46263-3 0  9995
2 63160  88.9796 315.5346 0001839  68.9921 291.1427 13.50990906 53194
QIANFAN-75              
1 63161U 25046C   26024.08879281  .00000158  00000+0  22557-3 0  9998
2 63161  88.9798 315.7702 0017099  10.7901 349.3614 13.50993923 53065
QIANFAN-76              
1 63162U 25046D   26024.08542232  .00000320  00000+0  47660-3 0  9995
2 63162  88.9796 315.7508 0014666  12.2909 347.8597 13.50996500 53078
QIANFAN-77              
1 63163U 25046E   26024.11558338  .00000796  00000+0  57009-3 0  9999
2 63163  88.9795 313.4074 0013730 316.2205  43.7882 13.96135695 54360
QIANFAN-78              
1 63164U 25046F   26024.12633897  .00000326  00000+0  48626-3 0  9999
2 63164  88.9795 315.6102 0016091  13.6617 346.4966 13.50995577 53150
QIANFAN-79              
1 63165U 25046G   26024.15500810  .00000322  00000+0  48029-3 0  9994
2 63165  88.9800 315.7164 0015759  12.1340 348.0187 13.50992678 53101
QIANFAN-80              
1 63166U 25046H   26024.09746595  .00000325  00000+0  48378-3 0  9990
2 63166  88.9797 315.4282 0014829  16.6242 343.5392 13.50995342 53257
QIANFAN-81              
1 63167U 25046J   26024.14909861  .00000249  00000+0  36725-3 0  9992
2 63167  88.9797 315.4906 0015514   5.2434 354.8877 13.51021247 53214
QIANFAN-82              
1 63168U 25046K   26024.10994106  .00000313  00000+0  46621-3 0  9993
2 63168  88.9797 315.5387 0013885  13.6105 346.5418 13.50994465 53192
QIANFAN-83              
1 63169U 25046L   26024.08898307  .00000400  00000+0  50376-3 0  9996
2 63169  88.9797 315.2342 0014599 357.2320   2.8755 13.61998127 53366
QIANFAN-84              
1 63170U 25046M   26024.13742014  .00000302  00000+0  44896-3 0  9998
2 63170  88.9796 315.6683 0016732   8.9681 351.1766 13.51003879 53126
QIANFAN-85              
1 63171U 25046N   26024.13450145  .00000307  00000+0  45648-3 0  9991
2 63171  88.9796 315.5403 0014216  12.2583 347.8911 13.50993252 53193
QIANFAN-86              
1 63172U 25046P   26024.14281736  .00000319  00000+0  47553-3 0  9991
2 63172  88.9798 315.4026 0012228  17.4279 342.7289 13.50995142 53277
QIANFAN-87              
1 63173U 25046Q   26024.11421659  .00000320  00000+0  47679-3 0  9990
2 63173  88.9794 315.5156 0012733  12.7870 347.3601 13.50992755 53204
QIANFAN-88              
1 63174U 25046R   26024.13035050  .00000327  00000+0  48756-3 0  9993
2 63174  88.9797 315.4695 0013361  19.7356 340.4310 13.50998899 53238
QIANFAN-89              
1 63175U 25046S   26024.16734267  .00000335  00000+0  50045-3 0  9996
2 63175  88.9798 315.6547 0017470   9.3987 350.7488 13.50964281 53135
QIANFAN-90              
1 63176U 25046T   26024.12202191  .00000331  00000+0  49336-3 0  9996
2 63176  88.9798 315.6319 0014341   9.3329 350.8086 13.50965613 53143
QIANFAN-91              
1 66033U 25233A   26024.15476141  .00000090  00000+0  12038-3 0  9991
2 66033  88.9914  57.7866 0001877  89.7463 270.3903 13.50991053 13732
QIANFAN-92              
1 66034U 25233B   26024.08847544 -.02072403  00000+0 -35353+1 0  9996
2 66034  88.9897  57.7899 0005778 244.5777 115.4775 13.49041548 13720
QIANFAN-93              
1 66035U 25233C   26024.17122031  .00000093  00000+0  12534-3 0  9995
2 66035  88.9925  57.7931 0001943  89.9831 270.1543 13.50993879 13730
QIANFAN-94              
1 66036U 25233D   26023.94004596 -.02053847  00000+0 -32221+1 0  9996
2 66036  88.9922  57.7268 0009588 270.4147  89.5908 13.54337072 13751
QIANFAN-95              
1 66037U 25233E   26024.12597681 -.02110364  00000+0 -20227+1 0  9991
2 66037  88.9913  57.3321 0011740 267.0328  92.9498 13.84586264 13983
QIANFAN-96              
1 66038U 25233F   26024.11772594  .00000073  00000+0  95156-4 0  9997
2 66038  88.9916  57.8011 0001821  88.8012 271.3347 13.50991439 13721
QIANFAN-97              
1 66039U 25233G   26024.10128375  .00000060  00000+0  73640-4 0  9999
2 66039  88.9920  57.7821 0001895  90.1307 270.0061 13.50992781 13730
QIANFAN-98              
1 66040U 25233H   26024.01826065 -.02097622  00000+0 -27474+1 0  9996
2 66040  88.9906  57.5514 0011763 276.5443  83.4377 13.65712321 13854
QIANFAN-99              
1 66041U 25233J   26024.11361786  .00000074  00000+0  96270-4 0  9997
2 66041  88.9920  57.7839 0001861 102.5140 257.6219 13.50992624 13730
QIANFAN-100             
1 66042U 25233K   26024.10538504  .00000075  00000+0  97230-4 0  9999
2 66042  88.9931  57.6956 0001924  89.6185 270.5187 13.50993958 13780
QIANFAN-101             
1 66043U 25233L   26024.16936013  .00000433  00000+0  17294-3 0  9992
2 66043  88.9920  57.1329 0012622 253.4228 106.5579 14.26700554 14094
QIANFAN-102             
1 66044U 25233M   26024.16470559 -.00058747  00000+0 -81840-1 0  9990
2 66044  88.9918  57.7011 0013278 274.2766  85.6871 13.58079893 13788
QIANFAN-103             
1 66045U 25233N   26024.12998490  .00000116  00000+0  16044-3 0  9997
2 66045  88.9921  57.7863 0001928  89.1454 270.9918 13.50987423 13739
QIANFAN-104             
1 66046U 25233P   26022.89934271 -.02108639  00000+0 -31683+1 0  9993
2 66046  88.9924  57.8174 0014249 269.5626  90.3895 13.57154121 13628
QIANFAN-105             
1 66047U 25233Q   26021.71016019  .00000167  00000+0  15207-3 0  9995
2 66047  88.9943  57.7828 0014222 267.1530  92.8009 13.78552380 13541
QIANFAN-106             
1 66048U 25233R   26024.13831512  .00000072  00000+0  92531-4 0  9999
2 66048  88.9906  57.7632 0001962 104.4689 255.6680 13.50993310 13747
QIANFAN-107             
1 66049U 25233S   26024.14649705  .00000057  00000+0  68972-4 0  9997
2 66049  88.9923  57.7720 0001939  90.3804 269.7569 13.50990552 13748
QIANFAN-108             
1 66050U 25233T   26023.55856598 -.02080112  00000+0 -35571+1 0  9992
2 66050  88.9851  57.8378 0006297 327.2737  32.8022 13.48900487 13668
